[{"OBJECT_NAME":"STARLINK-34408","OBJECT_ID":"2025-126V","EPOCH":"2026-03-09T22:34:11.232192","MEAN_MOTION":14.98362079,"ECCENTRICITY":0.00031482,"INCLINATION":70.0023,"RA_OF_ASC_NODE":33.6546,"ARG_OF_PERICENTER":270.6154,"MEAN_ANOMALY":89.4644,"EPHEMERIS_TYPE":0,"CLASSIFICATION_TYPE":"U","NORAD_CAT_ID":64363,"ELEMENT_SET_NO":999,"REV_AT_EPOCH":4072,"BSTAR":0.00097587334,"MEAN_MOTION_DOT":0.0001158,"MEAN_MOTION_DDOT":0},{"OBJECT_NAME":"STRIX-5","OBJECT_ID":"2025-229A","EPOCH":"2026-03-09T11:44:23.455104","MEAN_MOTION":15.03509399,"ECCENTRICITY":0.00369417,"INCLINATION":41.9265,"RA_OF_ASC_NODE":119.8574,"ARG_OF_PERICENTER":120.2079,"MEAN_ANOMALY":240.2413,"EPHEMERIS_TYPE":0,"CLASSIFICATION_TYPE":"U","NORAD_CAT_ID":65971,"ELEMENT_SET_NO":999,"REV_AT_EPOCH":2196,"BSTAR":0.00044899589,"MEAN_MOTION_DOT":6.129e-5,"MEAN_MOTION_DDOT":0}]
